FLOCK 3P-13             
1 42040U 17008CW  17345.91015196  .00001138  00000-0  50507-4 0  9992
2 42040  97.4757  46.7905 0006489 323.7381  36.3415 15.23625609 44757
